$H

; Falcon Design Space 1.9.1
; GRBL device profile, absolute coords
; Bounds: X20 Y20 to X117.9456 Y118
; Feed speed: F0.00
; Processing Mode: Plane Engraving
G00 G17 G40 G21 G54
G90
M4
; Line @ 6000 mm/min, 1% power
M9
; Layer 01
G0X20Y20.0518
G1Y117.9482S10F6000
G1X117.8964
G1Y20.0518
G1X20
G1Y20.3518
; Line @ 3000 mm/min, 30% power
; Layer 00
G0X22.8818Y20
G1Y118S300F3000
G0X22.8157Y26.4999
G1X115.0804
G0X22.8157Y31.5001
G1X114.8159
G0X22.8157Y34.5
G1X114.8159
G0X22.8157Y39.5
G1X114.8159
G0X22.8157Y42.4999
G1X114.8159
G0X22.8157Y47.5
G1X114.8159
G0X22.8157Y50.5
G1X114.8159
G0X22.8157Y55.5
G1X114.8159
G0X22.8157Y58.5
G1X114.8159
G0X22.8157Y63.5
G1X114.8159
G0X22.8157Y66.5
G1X114.8159
G0X22.8157Y71.5
G1X114.8159
G0X22.8157Y74.4998
G1X114.8159
G0X22.8157Y79.4999
G1X114.8159
G0X22.8157Y82.4998
G1X114.8159
G0X22.8157Y87.4999
G1X114.8159
G0X22.8157Y90.4998
G1X114.8159
G0X22.8157Y95.4999
G1X114.8159
G0X22.8157Y98.4999
G1X114.8159
G0X22.8157Y103.4999
G1X114.8159
G0X22.8157Y106.4999
G1X114.8159
G0X22.8157Y111.4999
G1X114.8159
G0X63.6086Y109.0556
G1X72.4696
G0X64.9527Y101.1571
G1X73.8136
G0X63.6898Y92.8759
G1X72.5508
G0X64.8715Y84.9773
G1X73.7324
G0X63.7138Y76.9595
G1X72.5748
G0X64.8475Y69.0609
G1X73.7084
G0X63.7054Y61.0036
G1X72.5664
G0X64.8559Y53.1051
G1X73.7168
G0X63.7866Y44.8238
G1X72.6475
G0X64.7747Y36.9253
G1X73.6357
G0X63.8106Y28.9075
G1X72.6716
G0X114.882Y20
G1Y118
; Cut @ 350 mm/min, 100% power
M8
; Layer 02
G0X20.0248Y26.4757
G1Y26.5036S1000F350
G1X21.5041
G1Y111.4938
G1X20.0248
G0X117.9456Y26.5344
G1Y26.5623
G1X116.4663
G1Y111.5525
G1X117.9456
M9
G1 S0
M5
; return to starting pos
G0 X0Y0
M2

